FENGYUN 1C DEB          
1 32409U 99025CZV 17345.51446939  .00000714  00000-0  23102-3 0  9997
2 32409  99.5456  83.8140 0074335  98.3219 325.2963 14.41087299542327
